<?xml version="1.0" encoding="UTF-8"?>
<kml xmlns="http://www.opengis.net/kml/2.2">
  <Document>
    <name>Eden Layout 06.14.25</name>
    <description/>
    <Style id="icon-1603-FF5252-nodesc-normal">
      <IconStyle>
        <color>ff5252ff</color>
        <scale>1</scale>
        <Icon>
          <href>https://www.gstatic.com/mapspro/images/stock/503-wht-blank_maps.png</href>
        </Icon>
      </IconStyle>
      <LabelStyle>
        <scale>0</scale>
      </LabelStyle>
      <BalloonStyle>
        <text><![CDATA[<h3>$[name]</h3>]]></text>
      </BalloonStyle>
    </Style>
    <Style id="icon-1603-FF5252-nodesc-highlight">
      <IconStyle>
        <color>ff5252ff</color>
        <scale>1</scale>
        <Icon>
          <href>https://www.gstatic.com/mapspro/images/stock/503-wht-blank_maps.png</href>
        </Icon>
      </IconStyle>
      <LabelStyle>
        <scale>1</scale>
      </LabelStyle>
      <BalloonStyle>
        <text><![CDATA[<h3>$[name]</h3>]]></text>
      </BalloonStyle>
    </Style>
    <StyleMap id="icon-1603-FF5252-nodesc">
      <Pair>
        <key>normal</key>
        <styleUrl>#icon-1603-FF5252-nodesc-normal</styleUrl>
      </Pair>
      <Pair>
        <key>highlight</key>
        <styleUrl>#icon-1603-FF5252-nodesc-highlight</styleUrl>
      </Pair>
    </StyleMap>
    <Style id="poly-006064-1200-77-nodesc-normal">
      <LineStyle>
        <color>ff646000</color>
        <width>1.2</width>
      </LineStyle>
      <PolyStyle>
        <color>4d646000</color>
        <fill>1</fill>
        <outline>1</outline>
      </PolyStyle>
      <BalloonStyle>
        <text><![CDATA[<h3>$[name]</h3>]]></text>
      </BalloonStyle>
    </Style>
    <Style id="poly-006064-1200-77-nodesc-highlight">
      <LineStyle>
        <color>ff646000</color>
        <width>1.8</width>
      </LineStyle>
      <PolyStyle>
        <color>4d646000</color>
        <fill>1</fill>
        <outline>1</outline>
      </PolyStyle>
      <BalloonStyle>
        <text><![CDATA[<h3>$[name]</h3>]]></text>
      </BalloonStyle>
    </Style>
    <StyleMap id="poly-006064-1200-77-nodesc">
      <Pair>
        <key>normal</key>
        <styleUrl>#poly-006064-1200-77-nodesc-normal</styleUrl>
      </Pair>
      <Pair>
        <key>highlight</key>
        <styleUrl>#poly-006064-1200-77-nodesc-highlight</styleUrl>
      </Pair>
    </StyleMap>
    <Style id="poly-01579B-1200-77-nodesc-normal">
      <LineStyle>
        <color>ff9b5701</color>
        <width>1.2</width>
      </LineStyle>
      <PolyStyle>
        <color>4d9b5701</color>
        <fill>1</fill>
        <outline>1</outline>
      </PolyStyle>
      <BalloonStyle>
        <text><![CDATA[<h3>$[name]</h3>]]></text>
      </BalloonStyle>
    </Style>
    <Style id="poly-01579B-1200-77-nodesc-highlight">
      <LineStyle>
        <color>ff9b5701</color>
        <width>1.8</width>
      </LineStyle>
      <PolyStyle>
        <color>4d9b5701</color>
        <fill>1</fill>
        <outline>1</outline>
      </PolyStyle>
      <BalloonStyle>
        <text><![CDATA[<h3>$[name]</h3>]]></text>
      </BalloonStyle>
    </Style>
    <StyleMap id="poly-01579B-1200-77-nodesc">
      <Pair>
        <key>normal</key>
        <styleUrl>#poly-01579B-1200-77-nodesc-normal</styleUrl>
      </Pair>
      <Pair>
        <key>highlight</key>
        <styleUrl>#poly-01579B-1200-77-nodesc-highlight</styleUrl>
      </Pair>
    </StyleMap>
    <Style id="poly-673AB7-1200-77-nodesc-normal">
      <LineStyle>
        <color>ffb73a67</color>
        <width>1.2</width>
      </LineStyle>
      <PolyStyle>
        <color>4db73a67</color>
        <fill>1</fill>
        <outline>1</outline>
      </PolyStyle>
      <BalloonStyle>
        <text><![CDATA[<h3>$[name]</h3>]]></text>
      </BalloonStyle>
    </Style>
    <Style id="poly-673AB7-1200-77-nodesc-highlight">
      <LineStyle>
        <color>ffb73a67</color>
        <width>1.8</width>
      </LineStyle>
      <PolyStyle>
        <color>4db73a67</color>
        <fill>1</fill>
        <outline>1</outline>
      </PolyStyle>
      <BalloonStyle>
        <text><![CDATA[<h3>$[name]</h3>]]></text>
      </BalloonStyle>
    </Style>
    <StyleMap id="poly-673AB7-1200-77-nodesc">
      <Pair>
        <key>normal</key>
        <styleUrl>#poly-673AB7-1200-77-nodesc-normal</styleUrl>
      </Pair>
      <Pair>
        <key>highlight</key>
        <styleUrl>#poly-673AB7-1200-77-nodesc-highlight</styleUrl>
      </Pair>
    </StyleMap>
    <Style id="poly-7CB342-1200-77-nodesc-normal">
      <LineStyle>
        <color>ff42b37c</color>
        <width>1.2</width>
      </LineStyle>
      <PolyStyle>
        <color>4d42b37c</color>
        <fill>1</fill>
        <outline>1</outline>
      </PolyStyle>
      <BalloonStyle>
        <text><![CDATA[<h3>$[name]</h3>]]></text>
      </BalloonStyle>
    </Style>
    <Style id="poly-7CB342-1200-77-nodesc-highlight">
      <LineStyle>
        <color>ff42b37c</color>
        <width>1.8</width>
      </LineStyle>
      <PolyStyle>
        <color>4d42b37c</color>
        <fill>1</fill>
        <outline>1</outline>
      </PolyStyle>
      <BalloonStyle>
        <text><![CDATA[<h3>$[name]</h3>]]></text>
      </BalloonStyle>
    </Style>
    <StyleMap id="poly-7CB342-1200-77-nodesc">
      <Pair>
        <key>normal</key>
        <styleUrl>#poly-7CB342-1200-77-nodesc-normal</styleUrl>
      </Pair>
      <Pair>
        <key>highlight</key>
        <styleUrl>#poly-7CB342-1200-77-nodesc-highlight</styleUrl>
      </Pair>
    </StyleMap>
    <Style id="poly-9C27B0-1200-77-nodesc-normal">
      <LineStyle>
        <color>ffb0279c</color>
        <width>1.2</width>
      </LineStyle>
      <PolyStyle>
        <color>4db0279c</color>
        <fill>1</fill>
        <outline>1</outline>
      </PolyStyle>
      <BalloonStyle>
        <text><![CDATA[<h3>$[name]</h3>]]></text>
      </BalloonStyle>
    </Style>
    <Style id="poly-9C27B0-1200-77-nodesc-highlight">
      <LineStyle>
        <color>ffb0279c</color>
        <width>1.8</width>
      </LineStyle>
      <PolyStyle>
        <color>4db0279c</color>
        <fill>1</fill>
        <outline>1</outline>
      </PolyStyle>
      <BalloonStyle>
        <text><![CDATA[<h3>$[name]</h3>]]></text>
      </BalloonStyle>
    </Style>
    <StyleMap id="poly-9C27B0-1200-77-nodesc">
      <Pair>
        <key>normal</key>
        <styleUrl>#poly-9C27B0-1200-77-nodesc-normal</styleUrl>
      </Pair>
      <Pair>
        <key>highlight</key>
        <styleUrl>#poly-9C27B0-1200-77-nodesc-highlight</styleUrl>
      </Pair>
    </StyleMap>
    <Style id="poly-9FA8DA-1200-77-nodesc-normal">
      <LineStyle>
        <color>ffdaa89f</color>
        <width>1.2</width>
      </LineStyle>
      <PolyStyle>
        <color>4ddaa89f</color>
        <fill>1</fill>
        <outline>1</outline>
      </PolyStyle>
      <BalloonStyle>
        <text><![CDATA[<h3>$[name]</h3>]]></text>
      </BalloonStyle>
    </Style>
    <Style id="poly-9FA8DA-1200-77-nodesc-highlight">
      <LineStyle>
        <color>ffdaa89f</color>
        <width>1.8</width>
      </LineStyle>
      <PolyStyle>
        <color>4ddaa89f</color>
        <fill>1</fill>
        <outline>1</outline>
      </PolyStyle>
      <BalloonStyle>
        <text><![CDATA[<h3>$[name]</h3>]]></text>
      </BalloonStyle>
    </Style>
    <StyleMap id="poly-9FA8DA-1200-77-nodesc">
      <Pair>
        <key>normal</key>
        <styleUrl>#poly-9FA8DA-1200-77-nodesc-normal</styleUrl>
      </Pair>
      <Pair>
        <key>highlight</key>
        <styleUrl>#poly-9FA8DA-1200-77-nodesc-highlight</styleUrl>
      </Pair>
    </StyleMap>
    <Style id="poly-A1C2FA-1200-77-nodesc-normal">
      <LineStyle>
        <color>fffac2a1</color>
        <width>1.2</width>
      </LineStyle>
      <PolyStyle>
        <color>4dfac2a1</color>
        <fill>1</fill>
        <outline>1</outline>
      </PolyStyle>
      <BalloonStyle>
        <text><![CDATA[<h3>$[name]</h3>]]></text>
      </BalloonStyle>
    </Style>
    <Style id="poly-A1C2FA-1200-77-nodesc-highlight">
      <LineStyle>
        <color>fffac2a1</color>
        <width>1.8</width>
      </LineStyle>
      <PolyStyle>
        <color>4dfac2a1</color>
        <fill>1</fill>
        <outline>1</outline>
      </PolyStyle>
      <BalloonStyle>
        <text><![CDATA[<h3>$[name]</h3>]]></text>
      </BalloonStyle>
    </Style>
    <StyleMap id="poly-A1C2FA-1200-77-nodesc">
      <Pair>
        <key>normal</key>
        <styleUrl>#poly-A1C2FA-1200-77-nodesc-normal</styleUrl>
      </Pair>
      <Pair>
        <key>highlight</key>
        <styleUrl>#poly-A1C2FA-1200-77-nodesc-highlight</styleUrl>
      </Pair>
    </StyleMap>
    <Style id="poly-A52714-1200-77-nodesc-normal">
      <LineStyle>
        <color>ff1427a5</color>
        <width>1.2</width>
      </LineStyle>
      <PolyStyle>
        <color>4d1427a5</color>
        <fill>1</fill>
        <outline>1</outline>
      </PolyStyle>
      <BalloonStyle>
        <text><![CDATA[<h3>$[name]</h3>]]></text>
      </BalloonStyle>
    </Style>
    <Style id="poly-A52714-1200-77-nodesc-highlight">
      <LineStyle>
        <color>ff1427a5</color>
        <width>1.8</width>
      </LineStyle>
      <PolyStyle>
        <color>4d1427a5</color>
        <fill>1</fill>
        <outline>1</outline>
      </PolyStyle>
      <BalloonStyle>
        <text><![CDATA[<h3>$[name]</h3>]]></text>
      </BalloonStyle>
    </Style>
    <StyleMap id="poly-A52714-1200-77-nodesc">
      <Pair>
        <key>normal</key>
        <styleUrl>#poly-A52714-1200-77-nodesc-normal</styleUrl>
      </Pair>
      <Pair>
        <key>highlight</key>
        <styleUrl>#poly-A52714-1200-77-nodesc-highlight</styleUrl>
      </Pair>
    </StyleMap>
    <Style id="poly-CE93D8-1200-77-nodesc-normal">
      <LineStyle>
        <color>ffd893ce</color>
        <width>1.2</width>
      </LineStyle>
      <PolyStyle>
        <color>4dd893ce</color>
        <fill>1</fill>
        <outline>1</outline>
      </PolyStyle>
      <BalloonStyle>
        <text><![CDATA[<h3>$[name]</h3>]]></text>
      </BalloonStyle>
    </Style>
    <Style id="poly-CE93D8-1200-77-nodesc-highlight">
      <LineStyle>
        <color>ffd893ce</color>
        <width>1.8</width>
      </LineStyle>
      <PolyStyle>
        <color>4dd893ce</color>
        <fill>1</fill>
        <outline>1</outline>
      </PolyStyle>
      <BalloonStyle>
        <text><![CDATA[<h3>$[name]</h3>]]></text>
      </BalloonStyle>
    </Style>
    <StyleMap id="poly-CE93D8-1200-77-nodesc">
      <Pair>
        <key>normal</key>
        <styleUrl>#poly-CE93D8-1200-77-nodesc-normal</styleUrl>
      </Pair>
      <Pair>
        <key>highlight</key>
        <styleUrl>#poly-CE93D8-1200-77-nodesc-highlight</styleUrl>
      </Pair>
    </StyleMap>
    <Style id="poly-E65100-1200-77-nodesc-normal">
      <LineStyle>
        <color>ff0051e6</color>
        <width>1.2</width>
      </LineStyle>
      <PolyStyle>
        <color>4d0051e6</color>
        <fill>1</fill>
        <outline>1</outline>
      </PolyStyle>
      <BalloonStyle>
        <text><![CDATA[<h3>$[name]</h3>]]></text>
      </BalloonStyle>
    </Style>
    <Style id="poly-E65100-1200-77-nodesc-highlight">
      <LineStyle>
        <color>ff0051e6</color>
        <width>1.8</width>
      </LineStyle>
      <PolyStyle>
        <color>4d0051e6</color>
        <fill>1</fill>
        <outline>1</outline>
      </PolyStyle>
      <BalloonStyle>
        <text><![CDATA[<h3>$[name]</h3>]]></text>
      </BalloonStyle>
    </Style>
    <StyleMap id="poly-E65100-1200-77-nodesc">
      <Pair>
        <key>normal</key>
        <styleUrl>#poly-E65100-1200-77-nodesc-normal</styleUrl>
      </Pair>
      <Pair>
        <key>highlight</key>
        <styleUrl>#poly-E65100-1200-77-nodesc-highlight</styleUrl>
      </Pair>
    </StyleMap>
    <Style id="poly-F48FB1-1200-77-nodesc-normal">
      <LineStyle>
        <color>ffb18ff4</color>
        <width>1.2</width>
      </LineStyle>
      <PolyStyle>
        <color>4db18ff4</color>
        <fill>1</fill>
        <outline>1</outline>
      </PolyStyle>
      <BalloonStyle>
        <text><![CDATA[<h3>$[name]</h3>]]></text>
      </BalloonStyle>
    </Style>
    <Style id="poly-F48FB1-1200-77-nodesc-highlight">
      <LineStyle>
        <color>ffb18ff4</color>
        <width>1.8</width>
      </LineStyle>
      <PolyStyle>
        <color>4db18ff4</color>
        <fill>1</fill>
        <outline>1</outline>
      </PolyStyle>
      <BalloonStyle>
        <text><![CDATA[<h3>$[name]</h3>]]></text>
      </BalloonStyle>
    </Style>
    <StyleMap id="poly-F48FB1-1200-77-nodesc">
      <Pair>
        <key>normal</key>
        <styleUrl>#poly-F48FB1-1200-77-nodesc-normal</styleUrl>
      </Pair>
      <Pair>
        <key>highlight</key>
        <styleUrl>#poly-F48FB1-1200-77-nodesc-highlight</styleUrl>
      </Pair>
    </StyleMap>
    <Style id="poly-F9A825-1200-77-nodesc-normal">
      <LineStyle>
        <color>ff25a8f9</color>
        <width>1.2</width>
      </LineStyle>
      <PolyStyle>
        <color>4d25a8f9</color>
        <fill>1</fill>
        <outline>1</outline>
      </PolyStyle>
      <BalloonStyle>
        <text><![CDATA[<h3>$[name]</h3>]]></text>
      </BalloonStyle>
    </Style>
    <Style id="poly-F9A825-1200-77-nodesc-highlight">
      <LineStyle>
        <color>ff25a8f9</color>
        <width>1.8</width>
      </LineStyle>
      <PolyStyle>
        <color>4d25a8f9</color>
        <fill>1</fill>
        <outline>1</outline>
      </PolyStyle>
      <BalloonStyle>
        <text><![CDATA[<h3>$[name]</h3>]]></text>
      </BalloonStyle>
    </Style>
    <StyleMap id="poly-F9A825-1200-77-nodesc">
      <Pair>
        <key>normal</key>
        <styleUrl>#poly-F9A825-1200-77-nodesc-normal</styleUrl>
      </Pair>
      <Pair>
        <key>highlight</key>
        <styleUrl>#poly-F9A825-1200-77-nodesc-highlight</styleUrl>
      </Pair>
    </StyleMap>
    <Folder>
      <name>Untitled layer</name>
      <Placemark>
        <name>Eden Grow
</name>
        <styleUrl>#icon-1603-FF5252-nodesc</styleUrl>
        <Point>
          <coordinates>
            -81.7258968,28.763013,0
          </coordinates>
        </Point>
      </Placemark>
      <Placemark>
        <name>Space Coast</name>
        <styleUrl>#poly-F48FB1-1200-77-nodesc</styleUrl>
        <Polygon>
          <outerBoundaryIs>
            <LinearRing>
              <tessellate>1</tessellate>
              <coordinates>
                -80.8801816,28.6574903,0
                -80.8369254,28.3443267,0
                -80.7509936,28.2648853,0
                -80.7386066,28.1467052,0
                -80.6838114,27.99326,0
                -80.6320458,27.9939826,0
                -80.6022806,27.9934755,0
                -80.5773222,27.9941542,0
                -80.5569382,27.9938789,0
                -80.5470861,27.9937433,0
                -80.5372341,27.9948196,0
                -80.5138881,27.9954259,0
                -80.5674006,28.1044029,0
                -80.5890591,28.2137192,0
                -80.6433013,28.2131142,0
                -80.7016632,28.411382,0
                -80.7469795,28.4107781,0
                -80.8225064,28.6623103,0
                -80.8801816,28.6574903,0
              </coordinates>
            </LinearRing>
          </outerBoundaryIs>
        </Polygon>
      </Placemark>
      <Placemark>
        <name>Orlando South</name>
        <styleUrl>#poly-CE93D8-1200-77-nodesc</styleUrl>
        <Polygon>
          <outerBoundaryIs>
            <LinearRing>
              <tessellate>1</tessellate>
              <coordinates>
                -81.5412713,28.5506605,0
                -81.7437565,28.5467656,0
                -81.6617776,28.2084268,0
                -81.5550114,28.2081839,0
                -81.4042862,28.2187132,0
                -81.357938,28.2205284,0
                -81.3133061,28.2108478,0
                -81.2274791,28.2097991,0
                -81.1320322,28.2105452,0
                -81.1519269,28.551591,0
                -81.2501353,28.5536762,0
                -81.5412713,28.5506605,0
              </coordinates>
            </LinearRing>
          </outerBoundaryIs>
        </Polygon>
      </Placemark>
      <Placemark>
        <name>Volusia County</name>
        <styleUrl>#poly-673AB7-1200-77-nodesc</styleUrl>
        <Polygon>
          <outerBoundaryIs>
            <LinearRing>
              <tessellate>1</tessellate>
              <coordinates>
                -81.362574,28.8308833,0
                -81.3170839,28.8314617,0
                -81.2075646,28.8055929,0
                -81.0950831,28.949224,0
                -80.9541053,28.9572364,0
                -80.8714814,28.9928028,0
                -80.9505891,29.1492051,0
                -81.0528991,29.3157816,0
                -81.1667254,29.2900271,0
                -81.1267369,29.1692485,0
                -81.343348,29.0508103,0
                -81.3440448,28.9390444,0
                -81.3656738,28.8885714,0
                -81.362574,28.8308833,0
              </coordinates>
            </LinearRing>
          </outerBoundaryIs>
        </Polygon>
      </Placemark>
      <Placemark>
        <name>Citrus Zone</name>
        <styleUrl>#poly-01579B-1200-77-nodesc</styleUrl>
        <Polygon>
          <outerBoundaryIs>
            <LinearRing>
              <tessellate>1</tessellate>
              <coordinates>
                -82.1478549,27.9377772,0
                -81.977805,27.8778115,0
                -81.4763998,27.4474035,0
                -81.3674207,27.4570704,0
                -81.4075783,27.5752613,0
                -81.4676407,27.6806108,0
                -81.4792695,27.8207606,0
                -81.516104,27.8938524,0
                -81.5462497,27.9618425,0
                -81.5716586,28.2080946,0
                -81.6968554,28.2093809,0
                -81.7341575,28.2051898,0
                -81.7796598,28.1845992,0
                -81.8075245,28.1872893,0
                -81.8472105,28.1892299,0
                -82.007119,28.1393419,0
                -82.1571229,28.0984117,0
                -82.1478549,27.9377772,0
              </coordinates>
            </LinearRing>
          </outerBoundaryIs>
        </Polygon>
      </Placemark>
      <Placemark>
        <name>Pinellas</name>
        <styleUrl>#poly-E65100-1200-77-nodesc</styleUrl>
        <MultiGeometry>
          <Polygon>
            <outerBoundaryIs>
              <LinearRing>
                <tessellate>1</tessellate>
                <coordinates>
                  -82.5373567,27.9531676,0
                  -82.5375834,27.8893162,0
                  -82.528456,27.8538383,0
                  -82.4841413,27.8569043,0
                  -82.4789388,27.9006051,0
                  -82.4886227,27.9045519,0
                  -82.4900678,27.9182072,0
                  -82.4428291,27.9078999,0
                  -82.4524959,27.9412576,0
                  -82.4607966,27.9940252,0
                  -82.5662854,27.9676545,0
                  -82.689663,28.0278945,0
                  -82.5373567,27.9531676,0
                </coordinates>
              </LinearRing>
            </outerBoundaryIs>
          </Polygon>
          <Polygon>
            <outerBoundaryIs>
              <LinearRing>
                <tessellate>1</tessellate>
                <coordinates>
                  -82.689663,28.0278945,0
                  -82.6931279,28.1080526,0
                  -82.7824982,28.107181,0
                  -82.801865,27.9720749,0
                  -82.8264141,27.9211205,0
                  -82.8523198,27.9004952,0
                  -82.8499271,27.8695362,0
                  -82.8397133,27.849579,0
                  -82.8349929,27.8405481,0
                  -82.7873582,27.8054039,0
                  -82.7417835,27.7508055,0
                  -82.6859986,27.7055302,0
                  -82.6487431,27.6961016,0
                  -82.6239222,27.7216468,0
                  -82.6300079,27.7617967,0
                  -82.5813747,27.8205791,0
                  -82.6106217,27.8724283,0
                  -82.632805,27.896516,0
                  -82.6659605,27.9133184,0
                  -82.7170214,27.9324603,0
                  -82.7222127,27.9558475,0
                  -82.6724752,28.003491,0
                  -82.689663,28.0278945,0
                </coordinates>
              </LinearRing>
            </outerBoundaryIs>
          </Polygon>
        </MultiGeometry>
      </Placemark>
      <Placemark>
        <name>Gulf Coast
</name>
        <styleUrl>#poly-CE93D8-1200-77-nodesc</styleUrl>
        <Polygon>
          <outerBoundaryIs>
            <LinearRing>
              <tessellate>1</tessellate>
              <coordinates>
                -82.635458,27.5186885,0
                -82.6330547,27.435839,0
                -82.5829296,27.4114597,0
                -82.5417309,27.3266996,0
                -82.5417586,27.2740883,0
                -82.4992368,27.2092673,0
                -82.4188993,27.2098779,0
                -82.3907397,27.2697292,0
                -82.3721295,27.5113808,0
                -82.4713543,27.5161355,0
                -82.527998,27.528127,0
                -82.6002649,27.525847,0
                -82.635458,27.5186885,0
              </coordinates>
            </LinearRing>
          </outerBoundaryIs>
        </Polygon>
      </Placemark>
      <Placemark>
        <name>Tampa
</name>
        <styleUrl>#poly-9C27B0-1200-77-nodesc</styleUrl>
        <Polygon>
          <outerBoundaryIs>
            <LinearRing>
              <tessellate>1</tessellate>
              <coordinates>
                -82.3353091,27.7118787,0
                -82.3104301,27.7661164,0
                -82.2676746,27.7881416,0
                -82.2216692,27.8109189,0
                -82.1729174,27.8379419,0
                -82.1478549,27.9377772,0
                -82.1578113,28.0996236,0
                -82.448949,28.1047721,0
                -82.4588203,28.1052843,0
                -82.5725316,28.1073253,0
                -82.6931279,28.1080526,0
                -82.6908201,28.0627968,0
                -82.689663,28.0278945,0
                -82.6206288,27.9946274,0
                -82.5662854,27.9676545,0
                -82.4607966,27.9940252,0
                -82.4571454,27.9725282,0
                -82.4542704,27.9536999,0
                -82.4524959,27.9412576,0
                -82.4490635,27.930345,0
                -82.4428291,27.9078999,0
                -82.4015818,27.8799301,0
                -82.3992155,27.8496993,0
                -82.3903747,27.8232371,0
                -82.4354153,27.7674862,0
                -82.4447225,27.7117301,0
                -82.3850898,27.7132606,0
                -82.3353091,27.7118787,0
              </coordinates>
            </LinearRing>
          </outerBoundaryIs>
        </Polygon>
      </Placemark>
      <Placemark>
        <name>Pasco</name>
        <styleUrl>#poly-7CB342-1200-77-nodesc</styleUrl>
        <Polygon>
          <outerBoundaryIs>
            <LinearRing>
              <tessellate>1</tessellate>
              <coordinates>
                -82.2582768,28.1007835,0
                -82.2610234,28.3325169,0
                -82.438178,28.481093,0
                -82.5786442,28.5357546,0
                -82.6125859,28.4919562,0
                -82.7279424,28.3367476,0
                -82.7938603,28.192811,0
                -82.7824982,28.107181,0
                -82.2582768,28.1007835,0
              </coordinates>
            </LinearRing>
          </outerBoundaryIs>
        </Polygon>
      </Placemark>
      <Placemark>
        <name>Mt. Dora</name>
        <styleUrl>#poly-006064-1200-77-nodesc</styleUrl>
        <Polygon>
          <outerBoundaryIs>
            <LinearRing>
              <tessellate>1</tessellate>
              <coordinates>
                -81.7437565,28.5467656,0
                -81.5553601,28.5504253,0
                -81.5340741,28.6239835,0
                -81.5855725,28.6998994,0
                -81.6624767,28.9693764,0
                -81.9198303,28.9693574,0
                -81.9172223,28.59324,0
                -81.8664105,28.553441,0
                -81.7437565,28.5467656,0
              </coordinates>
            </LinearRing>
          </outerBoundaryIs>
        </Polygon>
      </Placemark>
      <Placemark>
        <name>Orlando North</name>
        <styleUrl>#poly-E65100-1200-77-nodesc</styleUrl>
        <Polygon>
          <outerBoundaryIs>
            <LinearRing>
              <tessellate>1</tessellate>
              <coordinates>
                -81.6240246,28.8329206,0
                -81.5855725,28.6998994,0
                -81.5340741,28.6239835,0
                -81.5553601,28.5504253,0
                -81.1519269,28.551591,0
                -81.2075646,28.8055929,0
                -81.3170839,28.8314617,0
                -81.6240246,28.8329206,0
              </coordinates>
            </LinearRing>
          </outerBoundaryIs>
        </Polygon>
      </Placemark>
      <Placemark>
        <name>West Palm</name>
        <styleUrl>#poly-006064-1200-77-nodesc</styleUrl>
        <Polygon>
          <outerBoundaryIs>
            <LinearRing>
              <tessellate>1</tessellate>
              <coordinates>
                -80.1272642,26.9523474,0
                -80.1431058,26.7074881,0
                -80.1995724,26.7085844,0
                -80.2089751,26.6821044,0
                -80.2117216,26.4315116,0
                -80.2515739,26.3430836,0
                -80.2955177,26.3530767,0
                -80.2996122,26.2980081,0
                -80.2949323,26.1903455,0
                -80.3452742,26.1424703,0
                -80.3490243,25.9788896,0
                -80.116963,25.9851942,0
                -80.1028883,26.0928394,0
                -80.0531065,26.429667,0
                -80.0263274,26.6465143,0
                -80.0222075,26.7949372,0
                -80.0627196,26.9456145,0
                -80.1272642,26.9523474,0
              </coordinates>
            </LinearRing>
          </outerBoundaryIs>
        </Polygon>
      </Placemark>
      <Placemark>
        <name>Charlotte County</name>
        <styleUrl>#poly-673AB7-1200-77-nodesc</styleUrl>
        <Polygon>
          <outerBoundaryIs>
            <LinearRing>
              <tessellate>1</tessellate>
              <coordinates>
                -82.4992368,27.2092673,0
                -82.4649045,27.1078511,0
                -82.4374387,27.0387622,0
                -82.3316953,26.9108663,0
                -82.2671506,26.9200503,0
                -82.0014188,26.8710604,0
                -81.9732663,26.9273969,0
                -81.9966123,27.0314229,0
                -82.1229551,27.1078511,0
                -82.3426816,27.131075,0
                -82.4188993,27.2098779,0
                -82.4992368,27.2092673,0
              </coordinates>
            </LinearRing>
          </outerBoundaryIs>
        </Polygon>
      </Placemark>
      <Placemark>
        <name>Jacksonville</name>
        <styleUrl>#poly-006064-1200-77-nodesc</styleUrl>
        <Polygon>
          <outerBoundaryIs>
            <LinearRing>
              <tessellate>1</tessellate>
              <coordinates>
                -81.2415399,29.7357255,0
                -81.260766,29.8638329,0
                -81.3871088,30.4006776,0
                -81.4530268,30.3994931,0
                -81.5333643,30.4202194,0
                -81.6418542,30.46521,0
                -81.7627039,30.4640264,0
                -81.8272485,30.3076521,0
                -81.8265619,30.1611211,0
                -81.768197,30.0702456,0
                -81.6524341,30.00485,0
                -81.5959793,29.9554788,0
                -81.5148248,29.9180057,0
                -81.3774958,29.8608555,0
                -81.3184442,29.7458609,0
                -81.2415399,29.7357255,0
              </coordinates>
            </LinearRing>
          </outerBoundaryIs>
        </Polygon>
      </Placemark>
      <Placemark>
        <name>Vero Beach</name>
        <styleUrl>#poly-9FA8DA-1200-77-nodesc</styleUrl>
        <Polygon>
          <outerBoundaryIs>
            <LinearRing>
              <tessellate>1</tessellate>
              <coordinates>
                -80.6838114,27.99326,0
                -80.6817126,27.9144795,0
                -80.5993152,27.9023438,0
                -80.508678,27.5869467,0
                -80.3157306,27.5723398,0
                -80.3740954,27.7529631,0
                -80.5138881,27.9954259,0
                -80.6838114,27.99326,0
              </coordinates>
            </LinearRing>
          </outerBoundaryIs>
        </Polygon>
      </Placemark>
      <Placemark>
        <name>Brooksville</name>
        <styleUrl>#poly-F9A825-1200-77-nodesc</styleUrl>
        <Polygon>
          <outerBoundaryIs>
            <LinearRing>
              <tessellate>1</tessellate>
              <coordinates>
                -82.5786442,28.5357546,0
                -82.438178,28.481093,0
                -82.2610234,28.3325169,0
                -82.2582768,28.1007835,0
                -82.1571229,28.0984117,0
                -82.0955566,28.1134069,0
                -82.1649078,28.4387411,0
                -81.8664105,28.553441,0
                -81.9172223,28.59324,0
                -81.9189388,28.8371311,0
                -82.1277876,28.8426299,0
                -82.1492472,28.87197,0
                -82.2759071,28.854692,0
                -82.3139903,28.8374109,0
                -82.3568252,28.8379907,0
                -82.3566513,28.7758145,0
                -82.2978568,28.7754385,0
                -82.352362,28.6263516,0
                -82.5786442,28.5357546,0
              </coordinates>
            </LinearRing>
          </outerBoundaryIs>
        </Polygon>
      </Placemark>
      <Placemark>
        <name>Marion County</name>
        <styleUrl>#poly-A52714-1200-77-nodesc</styleUrl>
        <Polygon>
          <outerBoundaryIs>
            <LinearRing>
              <tessellate>1</tessellate>
              <coordinates>
                -82.2596235,29.3418415,0
                -82.3173017,29.0973382,0
                -82.1277876,28.8426299,0
                -81.9189388,28.8371311,0
                -81.9198303,28.9693574,0
                -81.9492598,29.0649338,0
                -82.0893354,29.3358557,0
                -82.2596235,29.3418415,0
              </coordinates>
            </LinearRing>
          </outerBoundaryIs>
        </Polygon>
      </Placemark>
      <Placemark>
        <name>Gainesville</name>
        <styleUrl>#poly-A1C2FA-1200-77-nodesc</styleUrl>
        <Polygon>
          <outerBoundaryIs>
            <LinearRing>
              <tessellate>1</tessellate>
              <coordinates>
                -82.3649217,29.5931382,0
                -82.3398592,29.6152276,0
                -82.2825243,29.6385058,0
                -82.2440721,29.687432,0
                -82.2770311,29.7083079,0
                -82.3182298,29.7089043,0
                -82.3250963,29.7306702,0
                -82.3535921,29.7384212,0
                -82.3776247,29.7446813,0
                -82.3793413,29.7744857,0
                -82.431183,29.7768696,0
                -82.4383928,29.6957829,0
                -82.5118639,29.6546183,0
                -82.4504091,29.583286,0
                -82.4212267,29.5752244,0
                -82.3834612,29.605079,0
                -82.3686983,29.5907499,0
                -82.3649217,29.5931382,0
              </coordinates>
            </LinearRing>
          </outerBoundaryIs>
        </Polygon>
      </Placemark>
    </Folder>
  </Document>
</kml>
