<?xml version="1.0" encoding="UTF-8"?>
<kml xmlns="http://www.opengis.net/kml/2.2">
  <Document>
    <name>Eden Map NEW</name>
    <description>Please see below</description>
    <Style id="poly-880E4F-1200-77-nodesc-normal">
      <LineStyle>
        <color>ff4f0e88</color>
        <width>1.2</width>
      </LineStyle>
      <PolyStyle>
        <color>4d4f0e88</color>
        <fill>1</fill>
        <outline>1</outline>
      </PolyStyle>
      <BalloonStyle>
        <text><![CDATA[<h3>$[name]</h3>]]></text>
      </BalloonStyle>
    </Style>
    <Style id="poly-880E4F-1200-77-nodesc-highlight">
      <LineStyle>
        <color>ff4f0e88</color>
        <width>1.8</width>
      </LineStyle>
      <PolyStyle>
        <color>4d4f0e88</color>
        <fill>1</fill>
        <outline>1</outline>
      </PolyStyle>
      <BalloonStyle>
        <text><![CDATA[<h3>$[name]</h3>]]></text>
      </BalloonStyle>
    </Style>
    <StyleMap id="poly-880E4F-1200-77-nodesc">
      <Pair>
        <key>normal</key>
        <styleUrl>#poly-880E4F-1200-77-nodesc-normal</styleUrl>
      </Pair>
      <Pair>
        <key>highlight</key>
        <styleUrl>#poly-880E4F-1200-77-nodesc-highlight</styleUrl>
      </Pair>
    </StyleMap>
    <Folder>
      <name>Untitled layer</name>
      <Placemark>
        <name>Pinellas County</name>
        <styleUrl>#poly-880E4F-1200-77-nodesc</styleUrl>
        <Polygon>
          <outerBoundaryIs>
            <LinearRing>
              <tessellate>1</tessellate>
              <coordinates>
                -82.7821641,28.1302706,0
                -82.7788453,28.0995922,0
                -82.7834802,28.0838426,0
                -82.7802186,28.0702112,0
                -82.7839952,28.0521849,0
                -82.7900033,28.0338525,0
                -82.7910333,28.0264277,0
                -82.79069,28.0183963,0
                -82.8033929,27.9620079,0
                -82.8066545,27.95382,0
                -82.811976,27.9463897,0
                -82.811976,27.9412337,0
                -82.8492265,27.8760043,0
                -82.8396134,27.8471695,0
                -82.7932649,27.8108874,0
                -82.7657991,27.8142277,0
                -82.7742515,27.8440045,0
                -82.7636085,27.822145,0
                -82.7576003,27.8338344,0
                -82.7546821,27.8323163,0
                -82.7533088,27.8271549,0
                -82.7558837,27.8241186,0
                -82.756742,27.8189568,0
                -82.7584587,27.8156167,0
                -82.7555404,27.7902587,0
                -82.7419792,27.7699073,0
                -82.7418075,27.7620087,0
                -82.7402626,27.7597302,0
                -82.7421508,27.7557806,0
                -82.7134834,27.7361824,0
                -82.7002654,27.7381576,0
                -82.6913391,27.7440829,0
                -82.6884208,27.7419559,0
                -82.6916824,27.7389172,0
                -82.6980339,27.719468,0
                -82.6897941,27.71035,0
                -82.6516853,27.7003192,0
                -82.6473937,27.7024471,0
                -82.6405273,27.7018391,0
                -82.6338325,27.7109579,0
                -82.627996,27.7202278,0
                -82.6230178,27.7445386,0
                -82.6286827,27.7580592,0
                -82.6364074,27.7579073,0
                -82.6364074,27.7623125,0
                -82.6278243,27.7618568,0
                -82.6271377,27.760034,0
                -82.6240478,27.7603378,0
                -82.6237045,27.7686922,0
                -82.6286827,27.7664138,0
                -82.6326309,27.7697554,0
                -82.6314292,27.7776534,0
                -82.6267944,27.7771978,0
                -82.607225,27.8001293,0
                -82.5964103,27.8136429,0
                -82.5984703,27.8230559,0
                -82.6048217,27.8230559,0
                -82.6094566,27.8303429,0
                -82.606195,27.8386919,0
                -82.6261077,27.8499241,0
                -82.6101432,27.8732955,0
                -82.6477371,27.9051574,0
                -82.6679931,27.9128939,0
                -82.6872354,27.9173648,0
                -82.6908402,27.9266172,0
                -82.6958184,27.9210052,0
                -82.7265458,27.9367786,0
                -82.7205377,27.9411766,0
                -82.7244859,27.946181,0
                -82.7229409,27.9534596,0
                -82.7183061,27.9583118,0
                -82.708178,27.958615,0
                -82.6755624,28.005912,0
                -82.710753,28.0531882,0
                -82.709723,28.0827253,0
                -82.7354722,28.1105888,0
                -82.7354722,28.1298164,0
                -82.7821641,28.1302706,0
              </coordinates>
            </LinearRing>
          </outerBoundaryIs>
        </Polygon>
      </Placemark>
      <Placemark>
        <name>Space Coast</name>
        <styleUrl>#poly-880E4F-1200-77-nodesc</styleUrl>
        <Polygon>
          <outerBoundaryIs>
            <LinearRing>
              <tessellate>1</tessellate>
              <coordinates>
                -80.8744464,28.6637383,0
                -80.8815821,28.6528037,0
                -80.8345469,28.4039537,0
                -80.8204707,28.4036517,0
                -80.8215006,28.3598537,0
                -80.7429538,28.2871077,0
                -80.7419239,28.2747117,0
                -80.7532535,28.2713857,0
                -80.7577167,28.2390273,0
                -80.7196079,28.1703466,0
                -80.7196079,28.0849637,0
                -80.7045017,28.0849637,0
                -80.7003818,28.0758764,0
                -80.7055316,28.0564877,0
                -80.6959186,28.0580025,0
                -80.6962619,28.0425498,0
                -80.7529102,28.0422468,0
                -80.7530812,28.0176976,0
                -80.7457004,27.999816,0
                -80.5609928,28.0010286,0
                -80.7614932,28.4460115,0
                -80.7625232,28.4674423,0
                -80.7721363,28.4939983,0
                -80.7831226,28.5075755,0
                -80.7817493,28.5344231,0
                -80.7975421,28.5567405,0
                -80.7961688,28.5697066,0
                -80.8057819,28.6088967,0
                -80.8033786,28.6176371,0
                -80.8177982,28.6281849,0
                -80.8181415,28.6483735,0
                -80.8243213,28.6652445,0
                -80.8744464,28.6637383,0
              </coordinates>
            </LinearRing>
          </outerBoundaryIs>
        </Polygon>
      </Placemark>
      <Placemark>
        <name>Orlando North</name>
        <styleUrl>#poly-880E4F-1200-77-nodesc</styleUrl>
        <Polygon>
          <outerBoundaryIs>
            <LinearRing>
              <tessellate>1</tessellate>
              <coordinates>
                -81.3312426,28.838682,0
                -81.5898629,28.7491329,0
                -81.5926095,28.7087907,0
                -81.5493508,28.6250462,0
                -81.6145821,28.5671692,0
                -81.1572762,28.5647569,0
                -81.1746874,28.655669,0
                -81.2179461,28.7526336,0
                -81.2055865,28.7724972,0
                -81.2131396,28.8007813,0
                -81.3312426,28.838682,0
              </coordinates>
            </LinearRing>
          </outerBoundaryIs>
        </Polygon>
      </Placemark>
      <Placemark>
        <name>Orlando South</name>
        <styleUrl>#poly-880E4F-1200-77-nodesc</styleUrl>
        <Polygon>
          <outerBoundaryIs>
            <LinearRing>
              <tessellate>1</tessellate>
              <coordinates>
                -81.6145821,28.5671692,0
                -81.8116919,28.5625263,0
                -81.6558234,28.2284972,0
                -81.2475117,28.2390135,0
                -81.1572762,28.5647569,0
                -81.6145821,28.5671692,0
              </coordinates>
            </LinearRing>
          </outerBoundaryIs>
        </Polygon>
      </Placemark>
      <Placemark>
        <name>Golf Coast</name>
        <styleUrl>#poly-880E4F-1200-77-nodesc</styleUrl>
        <Polygon>
          <outerBoundaryIs>
            <LinearRing>
              <tessellate>1</tessellate>
              <coordinates>
                -82.362081,27.5167535,0
                -82.5938258,27.519646,0
                -82.6454983,27.5235298,0
                -82.6439513,27.5000054,0
                -82.6444663,27.4818841,0
                -82.6394881,27.4748785,0
                -82.6391447,27.4419765,0
                -82.6207768,27.4285691,0
                -82.6029239,27.4275026,0
                -82.5883325,27.4175983,0
                -82.5739129,27.4069311,0
                -82.5641281,27.3833073,0
                -82.5634414,27.3753808,0
                -82.5490218,27.3485483,0
                -82.5510817,27.3445839,0
                -82.5507384,27.3375695,0
                -82.5404386,27.3297922,0
                -82.5411253,27.2716739,0
                -82.5301388,27.2548887,0
                -82.5047328,27.2289429,0
                -82.5006128,27.2170363,0
                -82.353885,27.2165965,0
                -82.355945,27.5172283,0
                -82.362081,27.5167535,0
              </coordinates>
            </LinearRing>
          </outerBoundaryIs>
        </Polygon>
      </Placemark>
      <Placemark>
        <name>Volusia County</name>
        <styleUrl>#poly-880E4F-1200-77-nodesc</styleUrl>
        <Polygon>
          <outerBoundaryIs>
            <LinearRing>
              <tessellate>1</tessellate>
              <coordinates>
                -81.0537313,29.2832124,0
                -81.1505484,29.2778221,0
                -81.1711477,29.2269002,0
                -81.1217092,29.1615632,0
                -81.3544821,29.0883845,0
                -81.3572287,28.912423,0
                -81.3675283,28.8841693,0
                -81.3312426,28.838682,0
                -81.2131396,28.8007813,0
                -80.8649038,28.9917328,0
                -81.031072,29.2814157,0
                -81.0537313,29.2832124,0
              </coordinates>
            </LinearRing>
          </outerBoundaryIs>
        </Polygon>
      </Placemark>
      <Placemark>
        <name>Citrus Zone</name>
        <styleUrl>#poly-880E4F-1200-77-nodesc</styleUrl>
        <Polygon>
          <outerBoundaryIs>
            <LinearRing>
              <tessellate>1</tessellate>
              <coordinates>
                -81.4796464,27.4492939,0
                -81.4193544,27.436392,0
                -81.3756196,27.4663541,0
                -81.4140718,27.5805289,0
                -81.4411943,27.5996986,0
                -81.4583604,27.6155187,0
                -81.4786165,27.6441108,0
                -81.4916627,27.8349383,0
                -81.5325181,27.8895723,0
                -81.5359514,27.9547936,0
                -81.559984,27.9981515,0
                -81.5744035,28.0105796,0
                -81.5860765,28.2291996,0
                -81.6558234,28.2284972,0
                -81.8480318,28.1883558,0
                -81.8676012,28.1641447,0
                -82.055742,28.14568,0
                -82.0560853,27.9274965,0
                -81.4796464,27.4492939,0
              </coordinates>
            </LinearRing>
          </outerBoundaryIs>
        </Polygon>
      </Placemark>
      <Placemark>
        <name>Charlotte County</name>
        <styleUrl>#poly-880E4F-1200-77-nodesc</styleUrl>
        <Polygon>
          <outerBoundaryIs>
            <LinearRing>
              <tessellate>1</tessellate>
              <coordinates>
                -82.353885,27.2165965,0
                -82.5006128,27.2170363,0
                -82.5093056,27.2030201,0
                -82.345884,26.9082763,0
                -81.9819619,26.9743858,0
                -81.9915749,27.0184372,0
                -82.353885,27.2165965,0
              </coordinates>
            </LinearRing>
          </outerBoundaryIs>
        </Polygon>
      </Placemark>
    </Folder>
  </Document>
</kml>
